{"type": "FeatureCollection", "features": [ {"type": "Feature", "properties": {"norad_id": 65077, "name": "CREW DRAGON 11", "group": "stations", "lat": -48.51565050881709, "lon": 70.30120840400868, "alt_km": 421.8204567566736, "timestamp": "2025-12-03T19:33:05.776216+00:00", "meta": {"OBJECT_NAME": "CREW DRAGON 11", "OBJECT_ID": "2025-166A", "EPOCH": "2025-12-03T01:26:08.635488", "MEAN_MOTION": 15.49262423, "ECCENTRICITY": 0.00036204, "INCLINATION": 51.6309, "RA_OF_ASC_NODE": 190.4017, "ARG_OF_PERICENTER": 198.708, "MEAN_ANOMALY": 161.3776, "EPHEMERIS_TYPE": 0, "CLASSIFICATION_TYPE": "U", "NORAD_CAT_ID": 65077, "ELEMENT_SET_NO": 999, "REV_AT_EPOCH": 214, "BSTAR": 0.00021764811, "MEAN_MOTION_DOT": 0.0001167, "MEAN_MOTION_DDOT": 0}, "tle": {"line1": "1 65077U 25166A   25337.05982217  .00011670  00000+0  21765-3 0  9997", "line2": "2 65077  51.6309 190.4017 0003620 198.7080 161.3776 15.49262423  2143"}}, "geometry": {"type": "Point", "coordinates": [70.30120840400868, -48.51565050881709]}}, {"type": "Feature", "properties": {"norad_id": 65304, "name": "DRAGON CRS-33", "group": "stations", "lat": -48.51565073334963, "lon": 70.30120931641875, "alt_km": 421.82045678513714, "timestamp": "2025-12-03T19:33:05.776226+00:00", "meta": {"OBJECT_NAME": "DRAGON CRS-33", "OBJECT_ID": "2025-186A", "EPOCH": "2025-12-03T01:26:08.635488", "MEAN_MOTION": 15.49262423, "ECCENTRICITY": 0.00036204, "INCLINATION": 51.6309, "RA_OF_ASC_NODE": 190.4017, "ARG_OF_PERICENTER": 198.708, "MEAN_ANOMALY": 161.3776, "EPHEMERIS_TYPE": 0, "CLASSIFICATION_TYPE": "U", "NORAD_CAT_ID": 65304, "ELEMENT_SET_NO": 999, "REV_AT_EPOCH": 11, "BSTAR": 0.00021764811, "MEAN_MOTION_DOT": 0.0001167, "MEAN_MOTION_DDOT": 0}, "tle": {"line1": "1 65304U 25186A   25337.05982217  .00011670  00000+0  21765-3 0  9992", "line2": "2 65304  51.6309 190.4017 0003620 198.7080 161.3776 15.49262423   111"}}, "geometry": {"type": "Point", "coordinates": [70.30120931641875, -48.51565073334963]}}, {"type": "Feature", "properties": {"norad_id": 65586, "name": "PROGRESS-MS 32", "group": "stations", "lat": -48.51565095788245, "lon": 70.30121022882996, "alt_km": 421.82045681360523, "timestamp": "2025-12-03T19:33:05.776236+00:00", "meta": {"OBJECT_NAME": "PROGRESS-MS 32", "OBJECT_ID": "2025-204A", "EPOCH": "2025-12-03T01:26:08.635488", "MEAN_MOTION": 15.49262423, "ECCENTRICITY": 0.00036204, "INCLINATION": 51.6309, "RA_OF_ASC_NODE": 190.4017, "ARG_OF_PERICENTER": 198.708, "MEAN_ANOMALY": 161.3776, "EPHEMERIS_TYPE": 0, "CLASSIFICATION_TYPE": "U", "NORAD_CAT_ID": 65586, "ELEMENT_SET_NO": 999, "REV_AT_EPOCH": 27, "BSTAR": 0.00021764811, "MEAN_MOTION_DOT": 0.0001167, "MEAN_MOTION_DDOT": 0}, "tle": {"line1": "1 65586U 25204A   25337.05982217  .00011670  00000+0  21765-3 0  9995", "line2": "2 65586  51.6309 190.4017 0003620 198.7080 161.3776 15.49262423   270"}}, "geometry": {"type": "Point", "coordinates": [70.30121022882996, -48.51565095788245]}}, {"type": "Feature", "properties": {"norad_id": 65616, "name": "CYGNUS NG-23", "group": "stations", "lat": -48.51565118241471, "lon": 70.30121114123895, "alt_km": 421.8204568420733, "timestamp": "2025-12-03T19:33:05.776246+00:00", "meta": {"OBJECT_NAME": "CYGNUS NG-23", "OBJECT_ID": "2025-208A", "EPOCH": "2025-12-03T01:26:08.635488", "MEAN_MOTION": 15.49262423, "ECCENTRICITY": 0.00036204, "INCLINATION": 51.6309, "RA_OF_ASC_NODE": 190.4017, "ARG_OF_PERICENTER": 198.708, "MEAN_ANOMALY": 161.3776, "EPHEMERIS_TYPE": 0, "CLASSIFICATION_TYPE": "U", "NORAD_CAT_ID": 65616, "ELEMENT_SET_NO": 999, "REV_AT_EPOCH": 22, "BSTAR": 0.00021764811, "MEAN_MOTION_DOT": 0.0001167, "MEAN_MOTION_DDOT": 0}, "tle": {"line1": "1 65616U 25208A   25337.05982217  .00011670  00000+0  21765-3 0  9993", "line2": "2 65616  51.6309 190.4017 0003620 198.7080 161.3776 15.49262423   229"}}, "geometry": {"type": "Point", "coordinates": [70.30121114123895, -48.51565118241471]}}, {"type": "Feature", "properties": {"norad_id": 65729, "name": "DRAGONFLY", "group": "stations", "lat": -49.19605559218097, "lon": 114.71673335598506, "alt_km": 366.18616199308144, "timestamp": "2025-12-03T19:33:05.776257+00:00", "meta": {"OBJECT_NAME": "DRAGONFLY", "OBJECT_ID": "1998-067XH", "EPOCH": "2025-12-02T23:59:20.731200", "MEAN_MOTION": 15.68122428, "ECCENTRICITY": 0.00065658, "INCLINATION": 51.6251, "RA_OF_ASC_NODE": 185.4963, "ARG_OF_PERICENTER": 216.9941, "MEAN_ANOMALY": 143.0603, "EPHEMERIS_TYPE": 0, "CLASSIFICATION_TYPE": "U", "NORAD_CAT_ID": 65729, "ELEMENT_SET_NO": 999, "REV_AT_EPOCH": 1163, "BSTAR": 0.001375183, "MEAN_MOTION_DOT": 0.00158902, "MEAN_MOTION_DDOT": 0}, "tle": {"line1": "1 65729U 98067XH  25336.99954550  .00158902  00000+0  13752-2 0  9998", "line2": "2 65729  51.6251 185.4963 0006565 216.9941 143.0603 15.68122428 11638"}}, "geometry": {"type": "Point", "coordinates": [114.71673335598506, -49.19605559218097]}}, {"type": "Feature", "properties": {"norad_id": 65730, "name": "1998-067XJ", "group": "stations", "lat": 42.820361176935506, "lon": -137.76758595181371, "alt_km": 171.36155179457, "timestamp": "2025-12-03T19:33:05.776268+00:00", "meta": {"OBJECT_NAME": "1998-067XJ", "OBJECT_ID": "1998-067XJ", "EPOCH": "2025-12-02T19:46:01.269984", "MEAN_MOTION": 16.23931094, "ECCENTRICITY": 0.00101147, "INCLINATION": 51.6061, "RA_OF_ASC_NODE": 180.4655, "ARG_OF_PERICENTER": 256.3912, "MEAN_ANOMALY": 103.5981, "EPHEMERIS_TYPE": 0, "CLASSIFICATION_TYPE": "U", "NORAD_CAT_ID": 65730, "ELEMENT_SET_NO": 999, "REV_AT_EPOCH": 1168, "BSTAR": 0.002285911, "MEAN_MOTION_DOT": 0.06330363, "MEAN_MOTION_DDOT": 1.1931217e-05}, "tle": {"line1": "1 65730U 98067XJ  25336.82362581  .06330363  11931-4  22859-2 0  9996", "line2": "2 65730  51.6061 180.4655 0010114 256.3912 103.5981 16.23931094 11687"}}, "geometry": {"type": "Point", "coordinates": [-137.76758595181371, 42.820361176935506]}}, {"type": "Feature", "properties": {"norad_id": 65731, "name": "1998-067XK", "group": "stations", "lat": 40.07576572636881, "lon": -39.36999366277345, "alt_km": 370.44612593323654, "timestamp": "2025-12-03T19:33:05.776279+00:00", "meta": {"OBJECT_NAME": "1998-067XK", "OBJECT_ID": "1998-067XK", "EPOCH": "2025-12-03T06:44:54.504096", "MEAN_MOTION": 15.63465607, "ECCENTRICITY": 0.000585, "INCLINATION": 51.628, "RA_OF_ASC_NODE": 185.1389, "ARG_OF_PERICENTER": 190.2066, "MEAN_ANOMALY": 169.881, "EPHEMERIS_TYPE": 0, "CLASSIFICATION_TYPE": "U", "NORAD_CAT_ID": 65731, "ELEMENT_SET_NO": 999, "REV_AT_EPOCH": 1166, "BSTAR": 0.0010076, "MEAN_MOTION_DOT": 0.0009565, "MEAN_MOTION_DDOT": 0}, "tle": {"line1": "1 65731U 98067XK  25337.28118639  .00095650  00000+0  10076-2 0  9990", "line2": "2 65731  51.6280 185.1389 0005850 190.2066 169.8810 15.63465607 11663"}}, "geometry": {"type": "Point", "coordinates": [-39.36999366277345, 40.07576572636881]}}, {"type": "Feature", "properties": {"norad_id": 65732, "name": "RSP-03", "group": "stations", "lat": 11.47807620957249, "lon": -168.8285343428261, "alt_km": 374.49542094943354, "timestamp": "2025-12-03T19:33:05.776289+00:00", "meta": {"OBJECT_NAME": "RSP-03", "OBJECT_ID": "1998-067XL", "EPOCH": "2025-12-03T11:49:48.936000", "MEAN_MOTION": 15.65753404, "ECCENTRICITY": 0.0006714, "INCLINATION": 51.6268, "RA_OF_ASC_NODE": 183.5455, "ARG_OF_PERICENTER": 194.5312, "MEAN_ANOMALY": 165.5491, "EPHEMERIS_TYPE": 0, "CLASSIFICATION_TYPE": "U", "NORAD_CAT_ID": 65732, "ELEMENT_SET_NO": 999, "REV_AT_EPOCH": 1171, "BSTAR": 0.0011877, "MEAN_MOTION_DOT": 0.00124067, "MEAN_MOTION_DDOT": 0}, "tle": {"line1": "1 65732U 98067XL  25337.49292750  .00124067  00000+0  11877-2 0  9996", "line2": "2 65732  51.6268 183.5455 0006714 194.5312 165.5491 15.65753404 11718"}}, "geometry": {"type": "Point", "coordinates": [-168.8285343428261, 11.47807620957249]}}, {"type": "Feature", "properties": {"norad_id": 65733, "name": "GHS-01", "group": "stations", "lat": 42.95175534221871, "lon": -46.588608276879015, "alt_km": 352.67865461581096, "timestamp": "2025-12-03T19:33:05.776300+00:00", "meta": {"OBJECT_NAME": "GHS-01", "OBJECT_ID": "1998-067XM", "EPOCH": "2025-12-02T20:07:58.918368", "MEAN_MOTION": 15.70056093, "ECCENTRICITY": 0.00069943, "INCLINATION": 51.628, "RA_OF_ASC_NODE": 185.9293, "ARG_OF_PERICENTER": 215.3541, "MEAN_ANOMALY": 144.6993, "EPHEMERIS_TYPE": 0, "CLASSIFICATION_TYPE": "U", "NORAD_CAT_ID": 65733, "ELEMENT_SET_NO": 999, "REV_AT_EPOCH": 1162, "BSTAR": 0.0014391205, "MEAN_MOTION_DOT": 0.00180652, "MEAN_MOTION_DDOT": 0}, "tle": {"line1": "1 65733U 98067XM  25336.83887637  .00180652  00000+0  14391-2 0  9994", "line2": "2 65733  51.6280 185.9293 0006994 215.3541 144.6993 15.70056093 11626"}}, "geometry": {"type": "Point", "coordinates": [-46.588608276879015, 42.95175534221871]}}, {"type": "Feature", "properties": {"norad_id": 65941, "name": "YOTSUBA-KULOVER", "group": "stations", "lat": 50.08228434964033, "lon": -103.94603974399654, "alt_km": 386.9868486359828, "timestamp": "2025-12-03T19:33:05.776310+00:00", "meta": {"OBJECT_NAME": "YOTSUBA-KULOVER", "OBJECT_ID": "1998-067XN", "EPOCH": "2025-12-02T21:39:48.604896", "MEAN_MOTION": 15.57747884, "ECCENTRICITY": 0.00021615, "INCLINATION": 51.6283, "RA_OF_ASC_NODE": 189.3568, "ARG_OF_PERICENTER": 168.1115, "MEAN_ANOMALY": 191.9929, "EPHEMERIS_TYPE": 0, "CLASSIFICATION_TYPE": "U", "NORAD_CAT_ID": 65941, "ELEMENT_SET_NO": 999, "REV_AT_EPOCH": 832, "BSTAR": 0.0009688527, "MEAN_MOTION_DOT": 0.00073507, "MEAN_MOTION_DDOT": 0}, "tle": {"line1": "1 65941U 98067XN  25336.90264589  .00073507  00000+0  96885-3 0  9997", "line2": "2 65941  51.6283 189.3568 0002161 168.1115 191.9929 15.57747884  8324"}}, "geometry": {"type": "Point", "coordinates": [-103.94603974399654, 50.08228434964033]}}]}